     3.05           N: GNSS NAV DATA    G: GPS              RINEX VERSION / TYPE
sbf2rin-16.2.0                          20260430 093022 UTC PGM / RUN BY / DATE 
GPSA   1.8626E-08  1.4901E-08 -1.1921E-07 -1.1921E-07       IONOSPHERIC CORR    
GPSB   1.1469E+05  6.5536E+04 -1.9661E+05 -6.5536E+04       IONOSPHERIC CORR    
GPUT  0.0000000000E+00-8.881784197E-15 503808 2415          TIME SYSTEM CORR    
    18                                                      LEAP SECONDS        
                                                            END OF HEADER       
G03 2026 04 23 07 59 44 4.926268011332E-04-1.466560206609E-11 0.000000000000E+00
     2.100000000000E+01-4.540625000000E+01 3.702297072677E-09 1.963877888425E+00
    -2.395361661911E-06 6.727802683599E-03 3.781169652939E-06 5.153601921082E+03
     3.743840000000E+05-3.725290298462E-08-3.036325512951E+00-1.974403858185E-07
     9.942487064266E-01 3.239062500000E+02 1.210489481494E+00-7.899614764949E-09
     1.025042697143E-10 1.000000000000E+00 2.415000000000E+03 0.000000000000E+00
     2.000000000000E+00 0.000000000000E+00 1.396983861923E-09 2.100000000000E+01
     3.672180000000E+05 4.000000000000E+00
G04 2026 04 23 08 00 00 5.441159009933E-05 1.477928890381E-12 0.000000000000E+00
     5.400000000000E+01-9.212500000000E+01 4.165530653929E-09-1.368713013122E+00
    -4.971399903297E-06 3.714183578268E-03 8.299946784973E-06 5.153715789795E+03
     3.744000000000E+05 3.166496753693E-08-1.967031951508E+00-4.097819328308E-08
     9.709867919202E-01 2.207187500000E+02-2.872174856080E+00-7.858184467782E-09
     2.653681965077E-10 1.000000000000E+00 2.415000000000E+03 0.000000000000E+00
     2.000000000000E+00 0.000000000000E+00-4.656612873077E-09 3.100000000000E+02
     3.682320000000E+05 4.000000000000E+00
G05 2026 04 23 08 00 00-2.321000210941E-04-4.547473508865E-13 0.000000000000E+00
     7.500000000000E+01-2.346875000000E+01 4.059097649138E-09-7.063702652140E-01
    -1.089647412300E-06 5.511045106687E-03 3.093853592873E-06 5.153733207703E+03
     3.744000000000E+05-8.381903171539E-08-3.096714907314E+00 8.381903171539E-08
     9.807306645802E-01 3.309062500000E+02 1.422629966363E+00-8.213913571042E-09
     1.332198348551E-10 1.000000000000E+00 2.415000000000E+03 0.000000000000E+00
     2.000000000000E+00 0.000000000000E+00-1.071020960808E-08 7.500000000000E+01
     3.697380000000E+05 4.000000000000E+00
G06 2026 04 23 08 00 00-6.089592352509E-04 2.387423592154E-12 0.000000000000E+00
     5.900000000000E+01 9.321875000000E+01 3.811230181606E-09-3.036720718807E+00
     4.759058356285E-06 3.771183080971E-03 5.669891834259E-06 5.153670051575E+03
     3.744000000000E+05 5.774199962616E-08 2.210104080735E+00 1.862645149231E-08
     9.863359800298E-01 2.858125000000E+02-5.318846465590E-01-7.858541625516E-09
     5.000208278745E-12 1.000000000000E+00 2.415000000000E+03 0.000000000000E+00
     2.000000000000E+00 0.000000000000E+00 3.725290298462E-09 5.900000000000E+01
     3.672180000000E+05 4.000000000000E+00
G10 2026 04 23 06 00 00-5.884887650609E-04 1.364242052659E-12 0.000000000000E+00
     8.100000000000E+01-4.318750000000E+01 3.852303321039E-09-7.880149259275E-02
    -2.169981598854E-06 1.093818037771E-02 4.006549715996E-06 5.153651628494E+03
     3.672000000000E+05 1.117587089539E-08-3.038773889221E+00 1.527369022369E-07
     9.937714206257E-01 3.223125000000E+02-2.256560755956E+00-8.081765209389E-09
     9.678974596714E-11 1.000000000000E+00 2.415000000000E+03 0.000000000000E+00
     2.000000000000E+00 0.000000000000E+00 2.328306436539E-09 8.100000000000E+01
     3.600180000000E+05 4.000000000000E+00
G11 2026 04 23 08 00 00-3.637610934675E-04 1.273292582482E-11 0.000000000000E+00
     1.160000000000E+02 9.137500000000E+01 4.270892185517E-09-1.861071196057E+00
     4.755333065987E-06 2.238836954348E-03 5.545094609261E-06 5.153602504730E+03
     3.744000000000E+05 3.352761268616E-08 2.227760921173E+00-1.452863216400E-07
     9.632285057850E-01 2.773750000000E+02-2.333208385483E+00-8.056407010261E-09
     2.357241045694E-11 1.000000000000E+00 2.415000000000E+03 0.000000000000E+00
     2.800000000000E+00 0.000000000000E+00-8.847564458847E-09 6.280000000000E+02
     3.672180000000E+05 4.000000000000E+00
G12 2026 04 23 08 00 00-6.079296581447E-04 1.136868377216E-13 0.000000000000E+00
     5.600000000000E+01 1.521875000000E+01 4.812343310558E-09 1.704830172974E+00
     4.675239324570E-07 8.869403740391E-03 7.295981049538E-06 5.153737886429E+03
     3.744000000000E+05 3.725290298462E-08 1.594860357821E-01-2.142041921616E-07
     9.593394097543E-01 2.345312500000E+02 1.575212528302E+00-7.954259898281E-09
    -2.300095808223E-10 1.000000000000E+00 2.415000000000E+03 0.000000000000E+00
     2.000000000000E+00 0.000000000000E+00-1.257285475731E-08 5.600000000000E+01
     3.672180000000E+05 4.000000000000E+00
G17 2026 04 23 06 00 00-1.192730851471E-04-8.753886504564E-12 0.000000000000E+00
     2.100000000000E+01 7.181250000000E+01 4.382682556320E-09-2.147443583588E+00
     3.730878233910E-06 1.257845305372E-02 9.272247552872E-06 5.153624134064E+03
     3.672000000000E+05 1.303851604462E-08 1.192846399801E+00 2.663582563400E-07
     9.584739035310E-01 2.014375000000E+02-1.112852694804E+00-7.808896700463E-09
    -4.835915721015E-10 1.000000000000E+00 2.415000000000E+03 0.000000000000E+00
     2.000000000000E+00 0.000000000000E+00-1.117587089539E-08 2.100000000000E+01
     3.600180000000E+05 4.000000000000E+00
G18 2026 04 23 08 00 00-3.698570653796E-04 9.322320693173E-12 0.000000000000E+00
     7.800000000000E+01 7.521875000000E+01 4.117671517547E-09-3.078876145698E+00
     3.920868039131E-06 5.885295686312E-03 6.072223186493E-06 5.153630455017E+03
     3.744000000000E+05-5.029141902924E-08 2.204335538737E+00-4.470348358154E-08
     9.712998095758E-01 2.678125000000E+02-2.872245613039E+00-7.918901282596E-09
     4.607334771129E-11 1.000000000000E+00 2.415000000000E+03 0.000000000000E+00
     2.000000000000E+00 0.000000000000E+00-8.381903171539E-09 7.800000000000E+01
     3.695280000000E+05 4.000000000000E+00
G19 2026 04 23 06 00 00 6.978777237236E-04 1.136868377216E-12 0.000000000000E+00
     3.400000000000E+01 6.287500000000E+01 4.482329564161E-09-3.930989118390E-01
     3.131106495857E-06 1.138681638986E-02 9.113922715187E-06 5.153732521057E+03
     3.672000000000E+05 2.309679985046E-07 1.236706423227E+00-1.862645149231E-07
     9.576159693718E-01 2.069375000000E+02 2.957141895915E+00-8.058192798932E-09
    -4.557332688342E-10 1.000000000000E+00 2.415000000000E+03 0.000000000000E+00
     2.000000000000E+00 0.000000000000E+00-1.536682248116E-08 3.400000000000E+01
     3.600180000000E+05 4.000000000000E+00
G21 2026 04 23 08 00 00 4.148613661528E-04 4.547473508865E-13 0.000000000000E+00
     3.600000000000E+01-3.806250000000E+01 4.434470427779E-09 1.263370959374E+00
    -1.924112439156E-06 8.569071069360E-04 2.689659595490E-06 5.153795166016E+03
     3.744000000000E+05-2.793967723846E-08-3.031622585352E+00 4.842877388000E-08
     9.636517821133E-01 3.286562500000E+02-1.718705326290E-01-8.307131739667E-09
     7.714607058635E-11 1.000000000000E+00 2.415000000000E+03 0.000000000000E+00
     2.000000000000E+00 0.000000000000E+00-9.778887033463E-09 2.920000000000E+02
     3.686460000000E+05 4.000000000000E+00
G24 2026 04 23 06 00 00-2.302555367351E-05 1.784883352229E-11 0.000000000000E+00
     4.500000000000E+01-3.025000000000E+01 5.124856327980E-09 2.349174003384E+00
    -1.765787601471E-06 1.802001101896E-02 8.709728717804E-06 5.153643207550E+03
     3.672000000000E+05 1.080334186554E-07-1.067839281895E+00-3.539025783539E-07
     9.347809519159E-01 1.952500000000E+02 1.142256869824E+00-7.906043604165E-09
     3.207276453081E-10 1.000000000000E+00 2.415000000000E+03 0.000000000000E+00
     2.000000000000E+00 0.000000000000E+00 2.328306436539E-09 4.500000000000E+01
     3.600180000000E+05 4.000000000000E+00
G25 2026 04 23 08 00 00 4.279976710677E-04-2.842170943040E-12 0.000000000000E+00
     8.800000000000E+01 1.393750000000E+01 5.181644407717E-09 1.600255181303E+00
     4.712492227554E-07 1.286498573609E-02 7.376074790955E-06 5.153696752548E+03
     3.744000000000E+05-3.166496753693E-07 6.512781528064E-02-1.657754182816E-07
     9.476959233392E-01 2.317500000000E+02 1.160063505759E+00-8.258201130082E-09
    -1.321483616526E-10 1.000000000000E+00 2.415000000000E+03 0.000000000000E+00
     2.000000000000E+00 0.000000000000E+00 5.587935447693E-09 8.800000000000E+01
     3.672180000000E+05 4.000000000000E+00
G26 2026 04 23 08 00 00-3.570499829948E-04-4.547473508865E-12 0.000000000000E+00
     9.800000000000E+01 1.046875000000E+01 5.732024476113E-09 7.744297054200E-01
     8.437782526016E-07 1.102895394433E-02 7.050111889839E-06 5.153739091873E+03
     3.744000000000E+05 5.587935447693E-09-1.032571760473E-02 1.061707735062E-07
     9.284337804679E-01 2.257500000000E+02 7.125269618023E-01-8.689647672991E-09
    -2.625109346341E-10 1.000000000000E+00 2.415000000000E+03 0.000000000000E+00
     2.000000000000E+00 0.000000000000E+00 6.519258022308E-09 9.800000000000E+01
     3.672780000000E+05 4.000000000000E+00
G28 2026 04 23 08 14 40-5.482593551278E-04 9.663381206337E-12 0.000000000000E+00
     1.390000000000E+02-2.321875000000E+01 4.693052627337E-09-3.026489286273E+00
    -1.102685928345E-06 4.227277822793E-04 8.856877684593E-06 5.153571390152E+03
     3.752800000000E+05-5.029141902924E-08-9.836206694862E-01-3.725290298462E-08
     9.617038350078E-01 2.100000000000E+02-3.844358957210E-01-7.923901490874E-09
     3.710868858297E-10 1.000000000000E+00 2.415000000000E+03 0.000000000000E+00
     2.000000000000E+00 0.000000000000E+00-9.778887033463E-09 1.390000000000E+02
     3.681180000000E+05 4.000000000000E+00
G29 2026 04 23 07 59 44-3.349436447024E-04 7.275957614183E-12 0.000000000000E+00
     5.900000000000E+01 5.503125000000E+01 4.367681931484E-09-1.130200798085E+00
     2.805143594742E-06 3.533605253324E-03 9.059906005859E-06 5.153733352661E+03
     3.743840000000E+05-1.303851604462E-07 1.209660584796E+00-4.470348358154E-08
     9.611256897828E-01 2.050625000000E+02 2.764588797180E+00-7.887114244252E-09
    -3.885876148053E-10 1.000000000000E+00 2.415000000000E+03 0.000000000000E+00
     2.000000000000E+00 0.000000000000E+00-9.778887033463E-09 5.900000000000E+01
     3.672180000000E+05 4.000000000000E+00
G31 2026 04 23 08 00 00-1.536486670375E-04 2.387423592154E-12 0.000000000000E+00
     1.060000000000E+02-1.806250000000E+01 4.939491463932E-09 1.339371347130E+00
    -8.381903171539E-07 1.081597979646E-02 9.216368198395E-06 5.153590173721E+03
     3.744000000000E+05-2.533197402954E-07-9.339958842433E-01 7.823109626770E-08
     9.545475060151E-01 2.030625000000E+02 9.454236911830E-01-8.199270103939E-09
     2.800116636097E-10 1.000000000000E+00 2.415000000000E+03 0.000000000000E+00
     2.000000000000E+00 0.000000000000E+00-1.350417733192E-08 1.060000000000E+02
     3.672180000000E+05 4.000000000000E+00
G32 2026 04 23 08 00 00 1.680105924606E-05 1.978150976356E-11 0.000000000000E+00
     3.000000000000E+01-7.734375000000E+01 4.329823211659E-09-4.100681032453E-01
    -4.041939973831E-06 9.381946176291E-03 7.994472980499E-06 5.153758138657E+03
     3.744000000000E+05-7.264316082001E-08-2.014452923810E+00 1.210719347000E-07
     9.682456696500E-01 2.346250000000E+02-1.979665431160E+00-8.081765209389E-09
     2.325096849617E-10 1.000000000000E+00 2.415000000000E+03 0.000000000000E+00
     2.000000000000E+00 0.000000000000E+00 9.313225746155E-10 3.000000000000E+01
     3.672180000000E+05 4.000000000000E+00
G09 2026 04 23 08 00 00 7.572993636131E-04-3.410605131648E-12 0.000000000000E+00
     4.600000000000E+01-9.846875000000E+01 4.296964700113E-09-4.593070014202E-01
    -5.392357707024E-06 3.367114928551E-03 8.560717105865E-06 5.153755681992E+03
     3.744000000000E+05-2.980232238770E-08-2.031630159722E+00-9.313225746155E-09
     9.652411972560E-01 2.164375000000E+02 2.044737964229E+00-8.021405552310E-09
     2.135803250493E-10 1.000000000000E+00 2.415000000000E+03 0.000000000000E+00
     2.000000000000E+00 0.000000000000E+00 4.656612873077E-10 4.600000000000E+01
     3.717060000000E+05 4.000000000000E+00
G16 2026 04 23 08 00 00 2.501765266061E-04 7.048583938740E-12 0.000000000000E+00
     9.100000000000E+01 1.325000000000E+01 4.986636284846E-09-1.547208932034E-02
     8.996576070786E-07 1.499393314589E-02 7.437542080879E-06 5.153666597366E+03
     3.744000000000E+05-6.519258022308E-08 1.763717516200E-01 1.285225152969E-07
     9.584469185441E-01 2.338125000000E+02 9.329150803663E-01-8.395706857747E-09
    -3.228705917133E-10 1.000000000000E+00 2.415000000000E+03 0.000000000000E+00
     2.800000000000E+00 0.000000000000E+00-1.071020960808E-08 9.100000000000E+01
     3.719880000000E+05 4.000000000000E+00
G16 2026 04 23 07 59 44 2.501769922674E-04 7.048583938740E-12 0.000000000000E+00
     3.500000000000E+01 1.325000000000E+01 4.986279127112E-09-1.780574940665E-02
     8.996576070786E-07 1.499393128324E-02 7.437542080879E-06 5.153666606903E+03
     3.743840000000E+05-6.519258022308E-08 1.763718905972E-01 1.285225152969E-07
     9.584469404879E-01 2.338125000000E+02 9.329149808879E-01-8.395349700013E-09
    -3.228705917133E-10 1.000000000000E+00 2.415000000000E+03 0.000000000000E+00
     2.000000000000E+00 0.000000000000E+00-1.071020960808E-08 3.500000000000E+01
     3.728880000000E+05 4.000000000000E+00
G18 2026 04 23 09 44 32-3.697983920574E-04 9.322320693173E-12 0.000000000000E+00
     7.900000000000E+01 8.750000000000E+01 4.057669018202E-09-2.163866714489E+00
     4.470348358154E-06 5.883940146305E-03 6.221234798431E-06 5.153633543015E+03
     3.806720000000E+05-3.352761268616E-08 2.204285768801E+00-5.774199962616E-08
     9.713000846044E-01 2.651250000000E+02-2.872411036889E+00-7.931044645558E-09
     5.750239520557E-11 1.000000000000E+00 2.415000000000E+03 0.000000000000E+00
     2.000000000000E+00 0.000000000000E+00-8.381903171539E-09 7.900000000000E+01
     3.735180000000E+05 4.000000000000E+00
G11 2026 04 23 09 44 32-3.636814653873E-04 1.273292582482E-11 0.000000000000E+00
     1.170000000000E+02 8.537500000000E+01 4.353038464382E-09-9.457376699758E-01
     4.313886165619E-06 2.239314024337E-03 5.157664418221E-06 5.153604612350E+03
     3.806720000000E+05 9.872019290924E-08 2.227710547052E+00 4.284083843231E-08
     9.632277962697E-01 2.846250000000E+02-2.333681619001E+00-8.204270312218E-09
    -6.428839215530E-11 1.000000000000E+00 2.415000000000E+03 0.000000000000E+00
     2.000000000000E+00 0.000000000000E+00-8.847564458847E-09 6.290000000000E+02
     3.735180000000E+05 4.000000000000E+00
